#aV2010 10 29  0  0   .00000000      96 DD+AD WGS84 FIT  NGA
## 1607 432000.00000000   900.00000000 55498  .0000000000000
+   32     1  2  3  4  5  6  7  8  9 10 11 12 13 14 15 16 17
+         18 19 20 21 22 23 24 25 26 27 28 29 30 31 32  0  0
+          0  0  0  0  0  0  0  0  0  0  0  0  0  0  0  0  0
+          0  0  0  0  0  0  0  0  0  0  0  0  0  0  0  0  0
+          0  0  0  0  0  0  0  0  0  0  0  0  0  0  0  0  0
++         0  0  0  0  0  0  0  0  0  0  0  0  0  0  0  0  0
++         0  0  0  0  0  0  0  0  0  0  0  0  0  0  0  0  0
++         0  0  0  0  0  0  0  0  0  0  0  0  0  0  0  0  0
++         0  0  0  0  0  0  0  0  0  0  0  0  0  0  0  0  0
++         0  0  0  0  0  0  0  0  0  0  0  0  0  0  0  0  0
%c cc cc ccc ccc cccc cccc cccc cccc ccccc ccccc ccccc ccccc
%c cc cc ccc ccc cccc cccc cccc cccc ccccc ccccc ccccc ccccc
%f  0.0000000  0.000000000  0.00000000000  0.000000000000000
%f  0.0000000  0.000000000  0.00000000000  0.000000000000000
%i    0    0    0    0      0      0      0      0         0
%i    0    0    0    0      0      0      0      0         0
/*      NGA, ST. LOUIS,MO.                                  
/*   EPHEMERIS COMPUTED FROM  3 DAYS OF DATA                
/* CCCCCCCCCCCCCCCCCCCCCCCCCCCCCCCCCCCCCCCCCCCCCCCCCCCCCCCCC
/* CCCCCCCCCCCCCCCCCCCCCCCCCCCCCCCCCCCCCCCCCCCCCCCCCCCCCCCCC
*  2010 10 29 22 45   .00000000                                                 
P  1 -11435.668123   9970.533327  21674.188477   -177.214278                    
V  1 -14837.975279 -23503.942946   3088.818306      -.036602                    
P  2  14522.909661 -13410.648330  17516.276188    298.890680                    
V  2  22561.313417   1343.117114 -18145.885618       .025961                    
P  3  -9112.621225  24750.721156   -770.967148    628.194997                    
V  3  -4060.225181  -1028.763134  31191.853678       .050532                    
P  4  24098.432745  -7122.285031   8948.222576    206.381823                    
V  4  11621.939353   2676.944161 -28199.176297       .095911                    
P  5   1624.876996 -20266.219877  17027.563880    -59.238795                    
V  5  12980.246050  17484.540971  19650.600538      -.059424                    
P  6 -13788.570651  22291.294242   3802.653077    438.185707                    
V  6  -1339.590747  -5826.854314  30781.439046      -.132038                    
P  7  23922.418117   6297.801189   9937.889963     -1.061061                    
V  7 -12496.066512   2254.642173  28453.533484       .002977                    
P  8  26813.318189    318.186409  -1639.978596      6.871092                    
V  8   1983.784625   1367.803244  32031.293018       .000805                    
P  9  -6756.293092 -14292.677252 -21889.078136     39.354340                    
V  9  26398.831122  -1708.706488  -7199.473788       .023656                    
P 10  13259.625690  -7677.532477  21499.727164    -56.527569                    
V 10  14118.582846  23944.845580    199.797638      -.010501                    
P 11  12602.374939  13154.259034 -19709.041118   -100.117831                    
V 11 -23399.782106   7862.978672  -9497.206109      -.028197                    
P 12 -11074.358145 -23900.250181  -3958.368403    -58.800799                    
V 12   4539.345730   3165.226146 -31391.638186       .036099                    
P 13  11835.697198   8358.721355  22126.892959    293.511908                    
V 13 -15414.129046  23773.050280   -778.302515      -.011044                    
P 14 -18575.824137  10634.591052 -15473.945424    102.541459                    
V 14   9058.228407 -17840.960372 -23036.929019       .034635                    
P 15   1674.146402 -23073.601832 -12907.851225   -189.673564                    
V 15   9926.671416 -13423.334430  25378.484555       .047411                    
P 16  -6568.213959  16028.641060  20081.419932   -121.626885                    
V 16 -13596.771594 -21577.010341  13064.551259      -.032601                    
P 17  18467.507762  -8058.618747 -17081.816709    175.770951                    
V 17  -9354.605894  19991.304218 -19637.597074       .011802                    
P 18 -18925.164963 -13406.344935 -12978.964632    101.695647                    
V 18  -6199.495487 -15923.229471  24548.303121       .022042                    
P 19  -4419.744916  22837.031149 -12506.957062    -78.586220                    
V 19 -10958.975305  11980.740947  26051.478152      -.032949                    
P 20  12965.927813  23093.499694  -2570.192120     49.896672                    
V 20  -4653.574042   -652.641126 -30918.951737      -.002325                    
P 21 -25163.416312  -5579.297805   7990.596616    -98.664069                    
V 21   9497.525374  -3002.963538  28523.843945      -.026869                    
P 22 -17466.702267   -833.454456 -19845.127896    159.945257                    
V 22 -11720.690342 -22855.439228  11085.709813      -.006408                    
P 23   5087.593673  17759.591251  18949.599874    346.338538                    
V 23 -13069.726155  20390.589807 -15925.869427      -.019847                    
P 24  -2449.229012  15332.706620 -21485.327219    334.351790                    
V 24 -27445.757477  -1119.731879   2582.040114       .032297                    
P 25 -17709.896231 -18345.225277   7396.309933    -48.503366                    
V 25  -2794.681138  -9379.728158 -29883.409894      -.022224                    
P 26  11232.236549 -23432.826846  -4806.020569    -39.835625                    
V 26   4746.074259  -3421.496738  31883.543368      -.077929                    
P 27    279.838010 -14521.135215 -21552.659047    202.860657                    
V 27  28909.256703  -1930.312267   1839.905489       .035658                    
P 28  17619.820365   5176.356177 -18804.764896      2.416065                    
V 28  11080.991446  22208.505837  15805.199991       .016766                    
P 29 -11622.538801 -10153.935497  21696.474847    159.857529                    
V 29  14135.425158 -23430.215626  -3366.897540       .028839                    
P 30 -19357.061348 -11399.348267  13785.988020    291.690368                    
V 30  -8221.132165 -16409.568284 -24353.352216       .033447                    
P 31 -22071.730263   8718.342345  12323.418641      3.743709                    
V 31 -15249.677306  -1395.852179 -26605.396832       .036304                    
P 32   6201.129851  24724.428029  -7793.971992   -119.805896                    
V 32  -6807.697460  -8045.466214 -29339.245574      -.086047                    
EOF
